{
    "links": {
        "self": "http://www.neowsapp.com/rest/v1/neo/3092271?api_key=iIulBulltgU6a56xZRHN4H3l9WmuAYTsLGpBGhQ2"
    },
    "id": "3092271",
    "neo_reference_id": "3092271",
    "name": "(2000 RK12)",
    "designation": "2000 RK12",
    "nasa_jpl_url": "http://ssd.jpl.nasa.gov/sbdb.cgi?sstr=3092271",
    "absolute_magnitude_h": 21.264,
    "estimated_diameter": {
        "kilometers": {
            "estimated_diameter_min": 0.1485097533,
            "estimated_diameter_max": 0.3320779037
        },
        "meters": {
            "estimated_diameter_min": 148.5097532846,
            "estimated_diameter_max": 332.0779036661
        },
        "miles": {
            "estimated_diameter_min": 0.0922796539,
            "estimated_diameter_max": 0.2063435791
        },
        "feet": {
            "estimated_diameter_min": 487.2367389663,
            "estimated_diameter_max": 1089.4944694639
        }
    },
    "is_potentially_hazardous_asteroid": false,
    "close_approach_data": [
        {
            "close_approach_date": "2000-09-09",
            "close_approach_date_full": "2000-Sep-09 18:53",
            "epoch_date_close_approach": 968525580000,
            "relative_velocity": {
                "kilometers_per_second": "22.8378140932",
                "kilometers_per_hour": "82216.1307354649",
                "miles_per_hour": "51085.9063450449"
            },
            "miss_distance": {
                "astronomical": "0.0656076431",
                "lunar": "25.5213731659",
                "kilometers": "9814763.663480197",
                "miles": "6098611.3441208386"
            },
            "orbiting_body": "Earth"
        }
    ],
    "orbital_data": {
        "orbit_id": "12",
        "orbit_determination_date": "2017-04-06 09:16:52",
        "first_observation_date": "2000-09-01",
        "last_observation_date": "2000-09-05",
        "data_arc_in_days": 4,
        "observations_used": 25,
        "orbit_uncertainty": "9",
        "minimum_orbit_intersection": ".0526742",
        "jupiter_tisserand_invariant": "2.922",
        "epoch_osculation": "2451791.5",
        "eccentricity": ".6881548280236616",
        "semi_major_axis": "2.519111393922145",
        "inclination": "31.96204394659436",
        "ascending_node_longitude": "162.2414242764888",
        "orbital_period": "1460.39213441864",
        "perihelion_distance": ".7855727258652049",
        "perihelion_argument": "250.8862141243768",
        "aphelion_distance": "4.252650061979085",
        "perihelion_time": "2451842.269289783467",
        "mean_anomaly": "347.4849063540568",
        "mean_motion": ".2465091337562637",
        "equinox": "J2000",
        "orbit_class": {
            "orbit_class_type": "APO",
            "orbit_class_description": "Near-Earth asteroid orbits which cross the Earth’s orbit similar to that of 1862 Apollo",
            "orbit_class_range": "a (semi-major axis) > 1.0 AU; q (perihelion) < 1.017 AU"
        }
    },
    "is_sentry_object": false
}